CCSDS_OMM_VERS = 2.0
CREATION_DATE  = 
ORIGINATOR     = 

OBJECT_NAME    = UNKNOWN
OBJECT_ID      = 
CENTER_NAME    = EARTH
REF_FRAME      = TEME
TIME_SYSTEM    = UTC
MEAN_ELEMENT_THEORY = SGP/SGP4

EPOCH          = 2025-12-06T11:38:21.421824
MEAN_MOTION    = 13.12038507
ECCENTRICITY   = .06045701
INCLINATION    = 72.7160
RA_OF_ASC_NODE = 62.8790
ARG_OF_PERICENTER = 351.6941
MEAN_ANOMALY   = 7.4462

EPHEMERIS_TYPE = 0
CLASSIFICATION_TYPE = U
NORAD_CAT_ID   = 270199
ELEMENT_SET_NO = 999
REV_AT_EPOCH   = 28629
BSTAR          = .42253964E-2
MEAN_MOTION_DOT = .3764E-4
MEAN_MOTION_DDOT = 0

CCSDS_OMM_VERS = 2.0
CREATION_DATE  = 
ORIGINATOR     = 

OBJECT_NAME    = UNKNOWN
OBJECT_ID      = 
CENTER_NAME    = EARTH
REF_FRAME      = TEME
TIME_SYSTEM    = UTC
MEAN_ELEMENT_THEORY = SGP/SGP4

EPOCH          = 2025-12-14T08:30:05.608512
MEAN_MOTION    = 12.95712609
ECCENTRICITY   = .0030368
INCLINATION    = 90.2467
RA_OF_ASC_NODE = 9.7271
ARG_OF_PERICENTER = 297.1067
MEAN_ANOMALY   = 62.6955

EPHEMERIS_TYPE = 0
CLASSIFICATION_TYPE = U
NORAD_CAT_ID   = 270200
ELEMENT_SET_NO = 999
REV_AT_EPOCH   = 28422
BSTAR          = .18569483E-2
MEAN_MOTION_DOT = .534E-5
MEAN_MOTION_DDOT = 0

CCSDS_OMM_VERS = 2.0
CREATION_DATE  = 
ORIGINATOR     = 

OBJECT_NAME    = UNKNOWN
OBJECT_ID      = 
CENTER_NAME    = EARTH
REF_FRAME      = TEME
TIME_SYSTEM    = UTC
MEAN_ELEMENT_THEORY = SGP/SGP4

EPOCH          = 2025-12-14T12:20:17.935008
MEAN_MOTION    = 14.02411650
ECCENTRICITY   = .00267671
INCLINATION    = 82.5285
RA_OF_ASC_NODE = 69.6340
ARG_OF_PERICENTER = 268.6258
MEAN_ANOMALY   = 91.1846

EPHEMERIS_TYPE = 0
CLASSIFICATION_TYPE = U
NORAD_CAT_ID   = 270202
ELEMENT_SET_NO = 999
REV_AT_EPOCH   = 30789
BSTAR          = .18690334E-2
MEAN_MOTION_DOT = .2893E-4
MEAN_MOTION_DDOT = 0

CCSDS_OMM_VERS = 2.0
CREATION_DATE  = 
ORIGINATOR     = 

OBJECT_NAME    = UNKNOWN
OBJECT_ID      = 
CENTER_NAME    = EARTH
REF_FRAME      = TEME
TIME_SYSTEM    = UTC
MEAN_ELEMENT_THEORY = SGP/SGP4

EPOCH          = 2025-12-07T08:11:47.153472
MEAN_MOTION    = 13.00574174
ECCENTRICITY   = .00355337
INCLINATION    = 90.2457
RA_OF_ASC_NODE = 8.1243
ARG_OF_PERICENTER = 54.1108
MEAN_ANOMALY   = 306.3305

EPHEMERIS_TYPE = 0
CLASSIFICATION_TYPE = U
NORAD_CAT_ID   = 270203
ELEMENT_SET_NO = 999
REV_AT_EPOCH   = 28556
BSTAR          = -.13563361E-2
MEAN_MOTION_DOT = -.405E-5
MEAN_MOTION_DDOT = 0

CCSDS_OMM_VERS = 2.0
CREATION_DATE  = 
ORIGINATOR     = 

OBJECT_NAME    = UNKNOWN
OBJECT_ID      = 
CENTER_NAME    = EARTH
REF_FRAME      = TEME
TIME_SYSTEM    = UTC
MEAN_ELEMENT_THEORY = SGP/SGP4

EPOCH          = 2025-12-13T06:52:47.042976
MEAN_MOTION    = 13.86842076
ECCENTRICITY   = .00619408
INCLINATION    = 89.9303
RA_OF_ASC_NODE = 346.5526
ARG_OF_PERICENTER = 200.5985
MEAN_ANOMALY   = 159.2689

EPHEMERIS_TYPE = 0
CLASSIFICATION_TYPE = U
NORAD_CAT_ID   = 270204
ELEMENT_SET_NO = 999
REV_AT_EPOCH   = 30389
BSTAR          = .36014025E-2
MEAN_MOTION_DOT = .4276E-4
MEAN_MOTION_DDOT = 0

CCSDS_OMM_VERS = 2.0
CREATION_DATE  = 
ORIGINATOR     = 

OBJECT_NAME    = UNKNOWN
OBJECT_ID      = 
CENTER_NAME    = EARTH
REF_FRAME      = TEME
TIME_SYSTEM    = UTC
MEAN_ELEMENT_THEORY = SGP/SGP4

EPOCH          = 2025-12-01T09:01:03.040896
MEAN_MOTION    = 14.31937599
ECCENTRICITY   = .00522289
INCLINATION    = 98.5286
RA_OF_ASC_NODE = 16.4304
ARG_OF_PERICENTER = 143.1583
MEAN_ANOMALY   = 217.3208

EPHEMERIS_TYPE = 0
CLASSIFICATION_TYPE = U
NORAD_CAT_ID   = 270207
ELEMENT_SET_NO = 999
REV_AT_EPOCH   = 31179
BSTAR          = .8518915E-3
MEAN_MOTION_DOT = .2275E-4
MEAN_MOTION_DDOT = 0

CCSDS_OMM_VERS = 2.0
CREATION_DATE  = 
ORIGINATOR     = 

OBJECT_NAME    = UNKNOWN
OBJECT_ID      = 
CENTER_NAME    = EARTH
REF_FRAME      = TEME
TIME_SYSTEM    = UTC
MEAN_ELEMENT_THEORY = SGP/SGP4

EPOCH          = 2025-12-14T11:05:15.212832
MEAN_MOTION    = 14.37137400
ECCENTRICITY   = .00022651
INCLINATION    = 86.3956
RA_OF_ASC_NODE = 69.3106
ARG_OF_PERICENTER = 102.9127
MEAN_ANOMALY   = 257.2323

EPHEMERIS_TYPE = 0
CLASSIFICATION_TYPE = U
NORAD_CAT_ID   = 270209
ELEMENT_SET_NO = 999
REV_AT_EPOCH   = 31401
BSTAR          = .26274244E-3
MEAN_MOTION_DOT = .8E-5
MEAN_MOTION_DDOT = 0

CCSDS_OMM_VERS = 2.0
CREATION_DATE  = 
ORIGINATOR     = 

OBJECT_NAME    = UNKNOWN
OBJECT_ID      = 
CENTER_NAME    = EARTH
REF_FRAME      = TEME
TIME_SYSTEM    = UTC
MEAN_ELEMENT_THEORY = SGP/SGP4

EPOCH          = 2025-12-14T13:58:27.398784
MEAN_MOTION    = 14.37193179
ECCENTRICITY   = .00029153
INCLINATION    = 86.3965
RA_OF_ASC_NODE = 37.5658
ARG_OF_PERICENTER = 103.1847
MEAN_ANOMALY   = 256.9676

EPHEMERIS_TYPE = 0
CLASSIFICATION_TYPE = U
NORAD_CAT_ID   = 270210
ELEMENT_SET_NO = 999
REV_AT_EPOCH   = 31406
BSTAR          = .21842526E-3
MEAN_MOTION_DOT = .669E-5
MEAN_MOTION_DDOT = 0

CCSDS_OMM_VERS = 2.0
CREATION_DATE  = 
ORIGINATOR     = 

OBJECT_NAME    = UNKNOWN
OBJECT_ID      = 
CENTER_NAME    = EARTH
REF_FRAME      = TEME
TIME_SYSTEM    = UTC
MEAN_ELEMENT_THEORY = SGP/SGP4

EPOCH          = 2025-12-11T14:51:29.411424
MEAN_MOTION    = 12.88819109
ECCENTRICITY   = .02143629
INCLINATION    = 82.4873
RA_OF_ASC_NODE = 292.5029
ARG_OF_PERICENTER = 4.9807
MEAN_ANOMALY   = 355.3362

EPHEMERIS_TYPE = 0
CLASSIFICATION_TYPE = U
NORAD_CAT_ID   = 270211
ELEMENT_SET_NO = 999
REV_AT_EPOCH   = 28361
BSTAR          = .23244962E-3
MEAN_MOTION_DOT = .77E-6
MEAN_MOTION_DDOT = 0

CCSDS_OMM_VERS = 2.0
CREATION_DATE  = 
ORIGINATOR     = 

OBJECT_NAME    = UNKNOWN
OBJECT_ID      = 
CENTER_NAME    = EARTH
REF_FRAME      = TEME
TIME_SYSTEM    = UTC
MEAN_ELEMENT_THEORY = SGP/SGP4

EPOCH          = 2025-12-13T13:12:45.695232
MEAN_MOTION    = 11.82092776
ECCENTRICITY   = .10253577
INCLINATION    = 83.2409
RA_OF_ASC_NODE = 279.7632
ARG_OF_PERICENTER = 103.1274
MEAN_ANOMALY   = 268.6077

EPHEMERIS_TYPE = 0
CLASSIFICATION_TYPE = U
NORAD_CAT_ID   = 270212
ELEMENT_SET_NO = 999
REV_AT_EPOCH   = 25942
BSTAR          = .11541072E-1
MEAN_MOTION_DOT = .3197E-4
MEAN_MOTION_DDOT = 0

CCSDS_OMM_VERS = 2.0
CREATION_DATE  = 
ORIGINATOR     = 

OBJECT_NAME    = UNKNOWN
OBJECT_ID      = 
CENTER_NAME    = EARTH
REF_FRAME      = TEME
TIME_SYSTEM    = UTC
MEAN_ELEMENT_THEORY = SGP/SGP4

EPOCH          = 2025-12-08T19:23:39.999840
MEAN_MOTION    = 14.40552744
ECCENTRICITY   = .01615338
INCLINATION    = 97.0599
RA_OF_ASC_NODE = 14.7607
ARG_OF_PERICENTER = 239.4447
MEAN_ANOMALY   = 119.0722

EPHEMERIS_TYPE = 0
CLASSIFICATION_TYPE = U
NORAD_CAT_ID   = 270213
ELEMENT_SET_NO = 999
REV_AT_EPOCH   = 8358
BSTAR          = .28486897E-2
MEAN_MOTION_DOT = .10565E-3
MEAN_MOTION_DDOT = 0

CCSDS_OMM_VERS = 2.0
CREATION_DATE  = 
ORIGINATOR     = 

OBJECT_NAME    = UNKNOWN
OBJECT_ID      = 
CENTER_NAME    = EARTH
REF_FRAME      = TEME
TIME_SYSTEM    = UTC
MEAN_ELEMENT_THEORY = SGP/SGP4

EPOCH          = 2025-12-11T13:22:27.491232
MEAN_MOTION    = 13.98931333
ECCENTRICITY   = .00186645
INCLINATION    = 82.5479
RA_OF_ASC_NODE = 79.4634
ARG_OF_PERICENTER = 162.7574
MEAN_ANOMALY   = 197.4232

EPHEMERIS_TYPE = 0
CLASSIFICATION_TYPE = U
NORAD_CAT_ID   = 270215
ELEMENT_SET_NO = 999
REV_AT_EPOCH   = 30706
BSTAR          = .21401649E-2
MEAN_MOTION_DOT = .3107E-4
MEAN_MOTION_DDOT = 0

CCSDS_OMM_VERS = 2.0
CREATION_DATE  = 
ORIGINATOR     = 

OBJECT_NAME    = UNKNOWN
OBJECT_ID      = 
CENTER_NAME    = EARTH
REF_FRAME      = TEME
TIME_SYSTEM    = UTC
MEAN_ELEMENT_THEORY = SGP/SGP4

EPOCH          = 2025-12-15T08:04:56.928864
MEAN_MOTION    = 13.05991722
ECCENTRICITY   = .00317823
INCLINATION    = 90.3191
RA_OF_ASC_NODE = 11.6646
ARG_OF_PERICENTER = 245.2875
MEAN_ANOMALY   = 114.4941

EPHEMERIS_TYPE = 0
CLASSIFICATION_TYPE = U
NORAD_CAT_ID   = 270216
ELEMENT_SET_NO = 999
REV_AT_EPOCH   = 28457
BSTAR          = .13578402E-4
MEAN_MOTION_DOT = .12E-6
MEAN_MOTION_DDOT = 0

CCSDS_OMM_VERS = 2.0
CREATION_DATE  = 
ORIGINATOR     = 

OBJECT_NAME    = UNKNOWN
OBJECT_ID      = 
CENTER_NAME    = EARTH
REF_FRAME      = TEME
TIME_SYSTEM    = UTC
MEAN_ELEMENT_THEORY = SGP/SGP4

EPOCH          = 2025-12-09T02:52:21.707616
MEAN_MOTION    = 12.11732997
ECCENTRICITY   = .08674627
INCLINATION    = 83.3278
RA_OF_ASC_NODE = 130.0290
ARG_OF_PERICENTER = 152.1439
MEAN_ANOMALY   = 212.9013

EPHEMERIS_TYPE = 0
CLASSIFICATION_TYPE = U
NORAD_CAT_ID   = 270217
ELEMENT_SET_NO = 999
REV_AT_EPOCH   = 26621
BSTAR          = .46999551E-2
MEAN_MOTION_DOT = .1418E-4
MEAN_MOTION_DDOT = 0

CCSDS_OMM_VERS = 2.0
CREATION_DATE  = 
ORIGINATOR     = 

OBJECT_NAME    = UNKNOWN
OBJECT_ID      = 
CENTER_NAME    = EARTH
REF_FRAME      = TEME
TIME_SYSTEM    = UTC
MEAN_ELEMENT_THEORY = SGP/SGP4

EPOCH          = 2025-12-15T04:28:04.402848
MEAN_MOTION    = 13.58875818
ECCENTRICITY   = .05085135
INCLINATION    = 98.8539
RA_OF_ASC_NODE = 146.7094
ARG_OF_PERICENTER = 213.8750
MEAN_ANOMALY   = 142.8930

EPHEMERIS_TYPE = 0
CLASSIFICATION_TYPE = U
NORAD_CAT_ID   = 270218
ELEMENT_SET_NO = 999
REV_AT_EPOCH   = 29076
BSTAR          = .41118002E-2
MEAN_MOTION_DOT = .7052E-4
MEAN_MOTION_DDOT = 0

CCSDS_OMM_VERS = 2.0
CREATION_DATE  = 
ORIGINATOR     = 

OBJECT_NAME    = UNKNOWN
OBJECT_ID      = 
CENTER_NAME    = EARTH
REF_FRAME      = TEME
TIME_SYSTEM    = UTC
MEAN_ELEMENT_THEORY = SGP/SGP4

EPOCH          = 2025-12-05T05:33:06.848064
MEAN_MOTION    = 12.56928599
ECCENTRICITY   = .00285386
INCLINATION    = 101.9268
RA_OF_ASC_NODE = 318.5651
ARG_OF_PERICENTER = 232.1078
MEAN_ANOMALY   = 127.7413

EPHEMERIS_TYPE = 0
CLASSIFICATION_TYPE = U
NORAD_CAT_ID   = 270219
ELEMENT_SET_NO = 999
REV_AT_EPOCH   = 27452
BSTAR          = .24901572E-3
MEAN_MOTION_DOT = -.5E-7
MEAN_MOTION_DDOT = 0

